{
    "links": {
        "self": "http://www.neowsapp.com/rest/v1/neo/3656927?api_key=iIulBulltgU6a56xZRHN4H3l9WmuAYTsLGpBGhQ2"
    },
    "id": "3656927",
    "neo_reference_id": "3656927",
    "name": "(2014 BF25)",
    "designation": "2014 BF25",
    "nasa_jpl_url": "http://ssd.jpl.nasa.gov/sbdb.cgi?sstr=3656927",
    "absolute_magnitude_h": 25.4,
    "estimated_diameter": {
        "kilometers": {
            "estimated_diameter_min": 0.022108281,
            "estimated_diameter_max": 0.0494356193
        },
        "meters": {
            "estimated_diameter_min": 22.1082810359,
            "estimated_diameter_max": 49.435619262
        },
        "miles": {
            "estimated_diameter_min": 0.0137374447,
            "estimated_diameter_max": 0.0307178602
        },
        "feet": {
            "estimated_diameter_min": 72.5337327539,
            "estimated_diameter_max": 162.1903570994
        }
    },
    "is_potentially_hazardous_asteroid": false,
    "close_approach_data": [
        {
            "close_approach_date": "2011-02-11",
            "close_approach_date_full": "2011-Feb-11 05:23",
            "epoch_date_close_approach": 1297401780000,
            "relative_velocity": {
                "kilometers_per_second": "25.5897578442",
                "kilometers_per_hour": "92123.1282392366",
                "miles_per_hour": "57241.7293217635"
            },
            "miss_distance": {
                "astronomical": "0.4386864005",
                "lunar": "170.6490097945",
                "kilometers": "65626551.112766935",
                "miles": "40778447.939716303"
            },
            "orbiting_body": "Earth"
        },
        {
            "close_approach_date": "2014-01-13",
            "close_approach_date_full": "2014-Jan-13 11:38",
            "epoch_date_close_approach": 1389613080000,
            "relative_velocity": {
                "kilometers_per_second": "12.5508774084",
                "kilometers_per_hour": "45183.1586702188",
                "miles_per_hour": "28075.0576748368"
            },
            "miss_distance": {
                "astronomical": "0.0196885036",
                "lunar": "7.6588279004",
                "kilometers": "2945358.202047332",
                "miles": "1830160.7210719016"
            },
            "orbiting_body": "Earth"
        }
    ],
    "orbital_data": {
        "orbit_id": "9",
        "orbit_determination_date": "2017-04-06 08:42:46",
        "first_observation_date": "2014-01-24",
        "last_observation_date": "2014-02-05",
        "data_arc_in_days": 12,
        "observations_used": 20,
        "orbit_uncertainty": "8",
        "minimum_orbit_intersection": ".0196732",
        "jupiter_tisserand_invariant": "3.559",
        "epoch_osculation": "2456685.5",
        "eccentricity": ".5785846566448033",
        "semi_major_axis": "2.048467587005937",
        "inclination": "5.522478646568657",
        "ascending_node_longitude": "304.3115062701974",
        "orbital_period": "1070.883116604054",
        "perihelion_distance": ".8632556715300981",
        "perihelion_argument": "119.3066144009397",
        "aphelion_distance": "3.233679502481775",
        "perihelion_time": "2456635.914274308195",
        "mean_anomaly": "16.66929002079873",
        "mean_motion": ".3361711417597273",
        "equinox": "J2000",
        "orbit_class": {
            "orbit_class_type": "APO",
            "orbit_class_description": "Near-Earth asteroid orbits which cross the Earth’s orbit similar to that of 1862 Apollo",
            "orbit_class_range": "a (semi-major axis) > 1.0 AU; q (perihelion) < 1.017 AU"
        }
    },
    "is_sentry_object": false
}